{
  "type": "FeatureCollection",
  "features": [
    {
      "type": "Feature",
      "properties": {
        "norad_id": 66657,
        "name": "SPIRONE",
        "group": "last-30-days",
        "lat": -79.88053828056678,
        "lon": -46.724003172338335,
        "alt_km": 591.9208133763095,
        "timestamp": "2025-12-02T06:27:51.802895+00:00",
        "meta_object_name": "SPIRONE",
        "meta_object_id": "2025-274H",
        "meta_epoch": "2025-12-01T17:57:48.824064",
        "meta_mean_motion": 14.92340933,
        "meta_eccentricity": 0.001125,
        "meta_inclination": 97.7371,
        "meta_ra_of_asc_node": 263.1447,
        "meta_arg_of_pericenter": 317.7398,
        "meta_mean_anomaly": 42.2953,
        "meta_ephemeris_type": 0,
        "meta_classification_type": "U",
        "meta_norad_cat_id": 66657,
        "meta_element_set_no": 999,
        "meta_rev_at_epoch": 76,
        "meta_bstar": 0.00040931,
        "meta_mean_motion_dot": 4.134e-05,
        "meta_mean_motion_ddot": 0,
        "tle_line1": "1 66657U 25274H   25335.74848176  .00004134  00000+0  40931-3 0  9994",
        "tle_line2": "2 66657  97.7371 263.1447 0011250 317.7398  42.2953 14.92340933   766"
      },
      "geometry": {
        "type": "Point",
        "coordinates": [
          -46.724003172338335,
          -79.88053828056678
        ]
      }
    },
    {
      "type": "Feature",
      "properties": {
        "norad_id": 66658,
        "name": "2025-274J",
        "group": "last-30-days",
        "lat": -77.32654608288487,
        "lon": -59.14179938061801,
        "alt_km": 590.9295337427639,
        "timestamp": "2025-12-02T06:27:51.802905+00:00",
        "meta_object_name": "2025-274J",
        "meta_object_id": "2025-274J",
        "meta_epoch": "2025-12-01T17:56:57.132672",
        "meta_mean_motion": 14.92515678,
        "meta_eccentricity": 0.0011882,
        "meta_inclination": 97.7372,
        "meta_ra_of_asc_node": 263.1455,
        "meta_arg_of_pericenter": 320.2054,
        "meta_mean_anomaly": 39.8293,
        "meta_ephemeris_type": 0,
        "meta_classification_type": "U",
        "meta_norad_cat_id": 66658,
        "meta_element_set_no": 999,
        "meta_rev_at_epoch": 76,
        "meta_bstar": 0.00036543,
        "meta_mean_motion_dot": 3.701e-05,
        "meta_mean_motion_ddot": 0,
        "tle_line1": "1 66658U 25274J   25335.74788348  .00003701  00000+0  36543-3 0  9992",
        "tle_line2": "2 66658  97.7372 263.1455 0011882 320.2054  39.8293 14.92515678   765"
      },
      "geometry": {
        "type": "Point",
        "coordinates": [
          -59.14179938061801,
          -77.32654608288487
        ]
      }
    },
    {
      "type": "Feature",
      "properties": {
        "norad_id": 66659,
        "name": "JACK K",
        "group": "last-30-days",
        "lat": -74.22199451116316,
        "lon": -67.57742000266454,
        "alt_km": 589.661712189335,
        "timestamp": "2025-12-02T06:27:51.802918+00:00",
        "meta_object_name": "JACK K",
        "meta_object_id": "2025-274K",
        "meta_epoch": "2025-12-01T17:56:02.624640",
        "meta_mean_motion": 14.9270196,
        "meta_eccentricity": 0.0012626,
        "meta_inclination": 97.7374,
        "meta_ra_of_asc_node": 263.1465,
        "meta_arg_of_pericenter": 321.0842,
        "meta_mean_anomaly": 38.9468,
        "meta_ephemeris_type": 0,
        "meta_classification_type": "U",
        "meta_norad_cat_id": 66659,
        "meta_element_set_no": 999,
        "meta_rev_at_epoch": 76,
        "meta_bstar": 0.00036748,
        "meta_mean_motion_dot": 3.74e-05,
        "meta_mean_motion_ddot": 0,
        "tle_line1": "1 66659U 25274K   25335.74725260  .00003740  00000+0  36748-3 0  9997",
        "tle_line2": "2 66659  97.7374 263.1465 0012626 321.0842  38.9468 14.92701960   765"
      },
      "geometry": {
        "type": "Point",
        "coordinates": [
          -67.57742000266454,
          -74.22199451116316
        ]
      }
    },
    {
      "type": "Feature",
      "properties": {
        "norad_id": 66660,
        "name": "K-HERO",
        "group": "last-30-days",
        "lat": -71.5620578650194,
        "lon": -72.26959970629427,
        "alt_km": 588.594213022212,
        "timestamp": "2025-12-02T06:27:51.802928+00:00",
        "meta_object_name": "K-HERO",
        "meta_object_id": "2025-274L",
        "meta_epoch": "2025-12-01T17:55:18.874272",
        "meta_mean_motion": 14.9285317,
        "meta_eccentricity": 0.0013251,
        "meta_inclination": 97.7378,
        "meta_ra_of_asc_node": 263.1475,
        "meta_arg_of_pericenter": 321.6444,
        "meta_mean_anomaly": 38.3832,
        "meta_ephemeris_type": 0,
        "meta_classification_type": "U",
        "meta_norad_cat_id": 66660,
        "meta_element_set_no": 999,
        "meta_rev_at_epoch": 76,
        "meta_bstar": 0.00040358,
        "meta_mean_motion_dot": 4.13e-05,
        "meta_mean_motion_ddot": 0,
        "tle_line1": "1 66660U 25274L   25335.74674623  .00004130  00000+0  40358-3 0  9991",
        "tle_line2": "2 66660  97.7378 263.1475 0013251 321.6444  38.3832 14.92853170   761"
      },
      "geometry": {
        "type": "Point",
        "coordinates": [
          -72.26959970629427,
          -71.5620578650194
        ]
      }
    },
    {
      "type": "Feature",
      "properties": {
        "norad_id": 66661,
        "name": "SNUGLITE-III",
        "group": "last-30-days",
        "lat": -68.69932238000447,
        "lon": -75.92844303689107,
        "alt_km": 587.478343294636,
        "timestamp": "2025-12-02T06:27:51.802937+00:00",
        "meta_object_name": "SNUGLITE-III",
        "meta_object_id": "2025-274M",
        "meta_epoch": "2025-12-01T17:54:33.114240",
        "meta_mean_motion": 14.93004804,
        "meta_eccentricity": 0.0013939,
        "meta_inclination": 97.7376,
        "meta_ra_of_asc_node": 263.1479,
        "meta_arg_of_pericenter": 322.3155,
        "meta_mean_anomaly": 37.7086,
        "meta_ephemeris_type": 0,
        "meta_classification_type": "U",
        "meta_norad_cat_id": 66661,
        "meta_element_set_no": 999,
        "meta_rev_at_epoch": 76,
        "meta_bstar": 0.00031193,
        "meta_mean_motion_dot": 3.192e-05,
        "meta_mean_motion_ddot": 0,
        "tle_line1": "1 66661U 25274M   25335.74621660  .00003192  00000+0  31193-3 0  9999",
        "tle_line2": "2 66661  97.7376 263.1479 0013939 322.3155  37.7086 14.93004804   761"
      },
      "geometry": {
        "type": "Point",
        "coordinates": [
          -75.92844303689107,
          -68.69932238000447
        ]
      }
    },
    {
      "type": "Feature",
      "properties": {
        "norad_id": 66662,
        "name": "2025-274N",
        "group": "last-30-days",
        "lat": -67.40023483767398,
        "lon": -77.27176377169411,
        "alt_km": 586.8569080988045,
        "timestamp": "2025-12-02T06:27:51.802947+00:00",
        "meta_object_name": "2025-274N",
        "meta_object_id": "2025-274N",
        "meta_epoch": "2025-12-01T17:54:12.595968",
        "meta_mean_motion": 14.93069825,
        "meta_eccentricity": 0.001433,
        "meta_inclination": 97.7377,
        "meta_ra_of_asc_node": 263.1482,
        "meta_arg_of_pericenter": 321.6887,
        "meta_mean_anomaly": 38.3313,
        "meta_ephemeris_type": 0,
        "meta_classification_type": "U",
        "meta_norad_cat_id": 66662,
        "meta_element_set_no": 999,
        "meta_rev_at_epoch": 76,
        "meta_bstar": 0.00022873,
        "meta_mean_motion_dot": 2.329e-05,
        "meta_mean_motion_ddot": 0,
        "tle_line1": "1 66662U 25274N   25335.74597912  .00002329  00000+0  22873-3 0  9998",
        "tle_line2": "2 66662  97.7377 263.1482 0014330 321.6887  38.3313 14.93069825   761"
      },
      "geometry": {
        "type": "Point",
        "coordinates": [
          -77.27176377169411,
          -67.40023483767398
        ]
      }
    },
    {
      "type": "Feature",
      "properties": {
        "norad_id": 66663,
        "name": "KSLV-II R/B",
        "group": "last-30-days",
        "lat": 18.679569693907162,
        "lon": -98.92281493520555,
        "alt_km": 548.0986996906549,
        "timestamp": "2025-12-02T06:27:51.802959+00:00",
        "meta_object_name": "KSLV-II R/B",
        "meta_object_id": "2025-274P",
        "meta_epoch": "2025-12-01T19:09:11.937312",
        "meta_mean_motion": 14.97208303,
        "meta_eccentricity": 0.0044233,
        "meta_inclination": 97.7405,
        "meta_ra_of_asc_node": 263.2462,
        "meta_arg_of_pericenter": 354.9322,
        "meta_mean_anomaly": 5.1446,
        "meta_ephemeris_type": 0,
        "meta_classification_type": "U",
        "meta_norad_cat_id": 66663,
        "meta_element_set_no": 999,
        "meta_rev_at_epoch": 77,
        "meta_bstar": -0.00030154,
        "meta_mean_motion_dot": -3.618e-05,
        "meta_mean_motion_ddot": 0,
        "tle_line1": "1 66663U 25274P   25335.79805483 -.00003618  00000+0 -30154-3 0  9994",
        "tle_line2": "2 66663  97.7405 263.2462 0044233 354.9322   5.1446 14.97208303   771"
      },
      "geometry": {
        "type": "Point",
        "coordinates": [
          -98.92281493520555,
          18.679569693907162
        ]
      }
    }
  ]
}